STARLINK-1244
1 15196C 20012U   21326.12833899  .00007370  00000-0  49383-3 0  3268
2 15196  53.0521 248.1623 0001912  68.2017  65.4751 15.06387198    13
